{
  "type": "FeatureCollection",
  "features": [
    {
      "type": "Feature",
      "properties": {
        "norad_id": 40115,
        "name": "WORLDVIEW-3 (WV-3)",
        "group": "resource",
        "lat": -28.34288395015468,
        "lon": 63.256467566603156,
        "alt_km": 620.6343835358439,
        "timestamp": "2025-12-12T16:50:32.804662+00:00",
        "meta_object_name": "WORLDVIEW-3 (WV-3)",
        "meta_object_id": "2014-048A",
        "meta_epoch": "2025-12-12T05:39:18.082080",
        "meta_mean_motion": 14.85510443,
        "meta_eccentricity": 0.00047561,
        "meta_inclination": 97.8613,
        "meta_ra_of_asc_node": 58.5221,
        "meta_arg_of_pericenter": 186.1841,
        "meta_mean_anomaly": 173.9316,
        "meta_ephemeris_type": 0,
        "meta_classification_type": "U",
        "meta_norad_cat_id": 40115,
        "meta_element_set_no": 999,
        "meta_rev_at_epoch": 61416,
        "meta_bstar": 0.00024551882,
        "meta_mean_motion_dot": 2.067e-05,
        "meta_mean_motion_ddot": 0,
        "tle_line1": "1 40115U 14048A   25346.23562595  .00002067  00000+0  24552-3 0  9990",
        "tle_line2": "2 40115  97.8613  58.5221 0004756 186.1841 173.9316 14.85510443614164"
      },
      "geometry": {
        "type": "Point",
        "coordinates": [
          63.256467566603156,
          -28.34288395015468
        ]
      }
    },
    {
      "type": "Feature",
      "properties": {
        "norad_id": 40118,
        "name": "GAOFEN-2",
        "group": "resource",
        "lat": 29.989757939810758,
        "lon": -129.45236152679936,
        "alt_km": 621.0588065176789,
        "timestamp": "2025-12-12T16:50:32.804672+00:00",
        "meta_object_name": "GAOFEN-2",
        "meta_object_id": "2014-049A",
        "meta_epoch": "2025-12-12T08:03:36.201024",
        "meta_mean_motion": 14.80610367,
        "meta_eccentricity": 0.00086063,
        "meta_inclination": 98.0381,
        "meta_ra_of_asc_node": 45.5032,
        "meta_arg_of_pericenter": 113.943,
        "meta_mean_anomaly": 246.2684,
        "meta_ephemeris_type": 0,
        "meta_classification_type": "U",
        "meta_norad_cat_id": 40118,
        "meta_element_set_no": 999,
        "meta_rev_at_epoch": 61158,
        "meta_bstar": 0.00028783768,
        "meta_mean_motion_dot": 2.157e-05,
        "meta_mean_motion_ddot": 0,
        "tle_line1": "1 40118U 14049A   25346.33583566  .00002157  00000+0  28784-3 0  9997",
        "tle_line2": "2 40118  98.0381  45.5032 0008606 113.9430 246.2684 14.80610367611584"
      },
      "geometry": {
        "type": "Point",
        "coordinates": [
          -129.45236152679936,
          29.989757939810758
        ]
      }
    },
    {
      "type": "Feature",
      "properties": {
        "norad_id": 40143,
        "name": "YAOGAN-21",
        "group": "resource",
        "lat": 71.35859745275428,
        "lon": -128.0537945423506,
        "alt_km": 485.06488729792454,
        "timestamp": "2025-12-12T16:50:32.804683+00:00",
        "meta_object_name": "YAOGAN-21",
        "meta_object_id": "2014-053A",
        "meta_epoch": "2025-12-12T06:55:02.818848",
        "meta_mean_motion": 15.23673625,
        "meta_eccentricity": 0.00098032,
        "meta_inclination": 97.1757,
        "meta_ra_of_asc_node": 29.6209,
        "meta_arg_of_pericenter": 43.381,
        "meta_mean_anomaly": 316.8198,
        "meta_ephemeris_type": 0,
        "meta_classification_type": "U",
        "meta_norad_cat_id": 40143,
        "meta_element_set_no": 999,
        "meta_rev_at_epoch": 62647,
        "meta_bstar": 0.00043345156,
        "meta_mean_motion_dot": 0.00010349,
        "meta_mean_motion_ddot": 0,
        "tle_line1": "1 40143U 14053A   25346.28822707  .00010349  00000+0  43345-3 0  9999",
        "tle_line2": "2 40143  97.1757  29.6209 0009803  43.3810 316.8198 15.23673625626478"
      },
      "geometry": {
        "type": "Point",
        "coordinates": [
          -128.0537945423506,
          71.35859745275428
        ]
      }
    },
    {
      "type": "Feature",
      "properties": {
        "norad_id": 40275,
        "name": "YAOGAN-22",
        "group": "resource",
        "lat": -28.963099708355088,
        "lon": 136.15107236044156,
        "alt_km": 1206.8908839367987,
        "timestamp": "2025-12-12T16:50:32.804693+00:00",
        "meta_object_name": "YAOGAN-22",
        "meta_object_id": "2014-063A",
        "meta_epoch": "2025-12-12T06:02:26.943072",
        "meta_mean_motion": 13.15522665,
        "meta_eccentricity": 0.00059533,
        "meta_inclination": 100.742,
        "meta_ra_of_asc_node": 129.6643,
        "meta_arg_of_pericenter": 249.4895,
        "meta_mean_anomaly": 110.5578,
        "meta_ephemeris_type": 0,
        "meta_classification_type": "U",
        "meta_norad_cat_id": 40275,
        "meta_element_set_no": 999,
        "meta_rev_at_epoch": 53523,
        "meta_bstar": 3.1923564e-05,
        "meta_mean_motion_dot": -3.5e-07,
        "meta_mean_motion_ddot": 0,
        "tle_line1": "1 40275U 14063A   25346.25170073 -.00000035  00000+0  31924-4 0  9998",
        "tle_line2": "2 40275 100.7420 129.6643 0005953 249.4895 110.5578 13.15522665535239"
      },
      "geometry": {
        "type": "Point",
        "coordinates": [
          136.15107236044156,
          -28.963099708355088
        ]
      }
    },
    {
      "type": "Feature",
      "properties": {
        "norad_id": 40298,
        "name": "ASNARO",
        "group": "resource",
        "lat": 24.13056697506558,
        "lon": -114.02970625644777,
        "alt_km": 503.68138489796274,
        "timestamp": "2025-12-12T16:50:32.804703+00:00",
        "meta_object_name": "ASNARO",
        "meta_object_id": "2014-070A",
        "meta_epoch": "2025-12-12T06:40:39.247392",
        "meta_mean_motion": 15.19484638,
        "meta_eccentricity": 0.00055272,
        "meta_inclination": 97.3651,
        "meta_ra_of_asc_node": 62.2354,
        "meta_arg_of_pericenter": 123.383,
        "meta_mean_anomaly": 236.7935,
        "meta_ephemeris_type": 0,
        "meta_classification_type": "U",
        "meta_norad_cat_id": 40298,
        "meta_element_set_no": 999,
        "meta_rev_at_epoch": 61562,
        "meta_bstar": 0.00081399454,
        "meta_mean_motion_dot": 0.00017239,
        "meta_mean_motion_ddot": 0,
        "tle_line1": "1 40298U 14070A   25346.27823203  .00017239  00000+0  81399-3 0  9996",
        "tle_line2": "2 40298  97.3651  62.2354 0005527 123.3830 236.7935 15.19484638615621"
      },
      "geometry": {
        "type": "Point",
        "coordinates": [
          -114.02970625644777,
          24.13056697506558
        ]
      }
    },
    {
      "type": "Feature",
      "properties": {
        "norad_id": 40310,
        "name": "YAOGAN-24",
        "group": "resource",
        "lat": 45.50421831903553,
        "lon": -53.84846084130037,
        "alt_km": 627.1758998048936,
        "timestamp": "2025-12-12T16:50:32.804713+00:00",
        "meta_object_name": "YAOGAN-24",
        "meta_object_id": "2014-072A",
        "meta_epoch": "2025-12-12T08:06:16.884288",
        "meta_mean_motion": 14.76176963,
        "meta_eccentricity": 0.00147361,
        "meta_inclination": 98.1222,
        "meta_ra_of_asc_node": 117.4282,
        "meta_arg_of_pericenter": 139.2985,
        "meta_mean_anomaly": 220.9328,
        "meta_ephemeris_type": 0,
        "meta_classification_type": "U",
        "meta_norad_cat_id": 40310,
        "meta_element_set_no": 999,
        "meta_rev_at_epoch": 59615,
        "meta_bstar": 0.00028628645,
        "meta_mean_motion_dot": 1.93e-05,
        "meta_mean_motion_ddot": 0,
        "tle_line1": "1 40310U 14072A   25346.33769542  .00001930  00000+0  28629-3 0  9993",
        "tle_line2": "2 40310  98.1222 117.4282 0014736 139.2985 220.9328 14.76176963596159"
      },
      "geometry": {
        "type": "Point",
        "coordinates": [
          -53.84846084130037,
          45.50421831903553
        ]
      }
    },
    {
      "type": "Feature",
      "properties": {
        "norad_id": 40336,
        "name": "CBERS 4",
        "group": "resource",
        "lat": -58.95004615638631,
        "lon": -149.36627414511256,
        "alt_km": 781.1630969077196,
        "timestamp": "2025-12-12T16:50:32.804723+00:00",
        "meta_object_name": "CBERS 4",
        "meta_object_id": "2014-079A",
        "meta_epoch": "2025-12-12T07:21:50.824800",
        "meta_mean_motion": 14.35517439,
        "meta_eccentricity": 0.000164,
        "meta_inclination": 98.3305,
        "meta_ra_of_asc_node": 44.3381,
        "meta_arg_of_pericenter": 113.6488,
        "meta_mean_anomaly": 246.487,
        "meta_ephemeris_type": 0,
        "meta_classification_type": "U",
        "meta_norad_cat_id": 40336,
        "meta_element_set_no": 999,
        "meta_rev_at_epoch": 57714,
        "meta_bstar": 8.9687597e-05,
        "meta_mean_motion_dot": 2.16e-06,
        "meta_mean_motion_ddot": 0,
        "tle_line1": "1 40336U 14079A   25346.30683825  .00000216  00000+0  89688-4 0  9993",
        "tle_line2": "2 40336  98.3305  44.3381 0001640 113.6488 246.4870 14.35517439577148"
      },
      "geometry": {
        "type": "Point",
        "coordinates": [
          -149.36627414511256,
          -58.95004615638631
        ]
      }
    }
  ]
}